{
    "links": {
        "self": "http://www.neowsapp.com/rest/v1/neo/3755113?api_key=iIulBulltgU6a56xZRHN4H3l9WmuAYTsLGpBGhQ2"
    },
    "id": "3755113",
    "neo_reference_id": "3755113",
    "name": "(2016 NS16)",
    "designation": "2016 NS16",
    "nasa_jpl_url": "http://ssd.jpl.nasa.gov/sbdb.cgi?sstr=3755113",
    "absolute_magnitude_h": 23.2,
    "estimated_diameter": {
        "kilometers": {
            "estimated_diameter_min": 0.0608912622,
            "estimated_diameter_max": 0.1361570015
        },
        "meters": {
            "estimated_diameter_min": 60.8912622106,
            "estimated_diameter_max": 136.1570015386
        },
        "miles": {
            "estimated_diameter_min": 0.0378360645,
            "estimated_diameter_max": 0.0846040122
        },
        "feet": {
            "estimated_diameter_min": 199.7744887109,
            "estimated_diameter_max": 446.7093369279
        }
    },
    "is_potentially_hazardous_asteroid": false,
    "close_approach_data": [
        {
            "close_approach_date": "2009-09-08",
            "close_approach_date_full": "2009-Sep-08 12:54",
            "epoch_date_close_approach": 1252414440000,
            "relative_velocity": {
                "kilometers_per_second": "19.1845734242",
                "kilometers_per_hour": "69064.4643272158",
                "miles_per_hour": "42913.9722926525"
            },
            "miss_distance": {
                "astronomical": "0.4689942751",
                "lunar": "182.4387730139",
                "kilometers": "70160544.597154037",
                "miles": "43595740.8513062306"
            },
            "orbiting_body": "Earth"
        },
        {
            "close_approach_date": "2016-07-27",
            "close_approach_date_full": "2016-Jul-27 22:21",
            "epoch_date_close_approach": 1469658060000,
            "relative_velocity": {
                "kilometers_per_second": "10.8714524239",
                "kilometers_per_hour": "39137.2287260123",
                "miles_per_hour": "24318.3519270047"
            },
            "miss_distance": {
                "astronomical": "0.0783486734",
                "lunar": "30.4776339526",
                "kilometers": "11720794.657965658",
                "miles": "7282964.0849277604"
            },
            "orbiting_body": "Earth"
        },
        {
            "close_approach_date": "2023-06-21",
            "close_approach_date_full": "2023-Jun-21 20:49",
            "epoch_date_close_approach": 1687380540000,
            "relative_velocity": {
                "kilometers_per_second": "17.5231166775",
                "kilometers_per_hour": "63083.2200388956",
                "miles_per_hour": "39197.4596958349"
            },
            "miss_distance": {
                "astronomical": "0.3522216421",
                "lunar": "137.0142187769",
                "kilometers": "52691607.426062327",
                "miles": "32741046.6320490326"
            },
            "orbiting_body": "Earth"
        },
        {
            "close_approach_date": "2106-09-07",
            "close_approach_date_full": "2106-Sep-07 01:59",
            "epoch_date_close_approach": 4313267940000,
            "relative_velocity": {
                "kilometers_per_second": "17.6455235483",
                "kilometers_per_hour": "63523.8847738307",
                "miles_per_hour": "39471.2716251616"
            },
            "miss_distance": {
                "astronomical": "0.4235267979",
                "lunar": "164.7519243831",
                "kilometers": "63358706.853760473",
                "miles": "39369274.8613936074"
            },
            "orbiting_body": "Earth"
        },
        {
            "close_approach_date": "2113-07-16",
            "close_approach_date_full": "2113-Jul-16 17:58",
            "epoch_date_close_approach": 4529671080000,
            "relative_velocity": {
                "kilometers_per_second": "11.5608476378",
                "kilometers_per_hour": "41619.0514961232",
                "miles_per_hour": "25860.4600810217"
            },
            "miss_distance": {
                "astronomical": "0.0694358463",
                "lunar": "27.0105442107",
                "kilometers": "10387454.708127381",
                "miles": "6454465.0581086178"
            },
            "orbiting_body": "Earth"
        }
    ],
    "orbital_data": {
        "orbit_id": "8",
        "orbit_determination_date": "2017-04-06 08:25:06",
        "first_observation_date": "2016-07-07",
        "last_observation_date": "2016-09-09",
        "data_arc_in_days": 64,
        "observations_used": 25,
        "orbit_uncertainty": "7",
        "minimum_orbit_intersection": ".0507984",
        "jupiter_tisserand_invariant": "3.350",
        "epoch_osculation": "2459000.5",
        "eccentricity": ".5367939405032068",
        "semi_major_axis": "2.290066967953166",
        "inclination": "15.64058224029648",
        "ascending_node_longitude": "116.6553800193672",
        "orbital_period": "1265.816349024927",
        "perihelion_distance": "1.060772896209355",
        "perihelion_argument": "191.1859251173006",
        "aphelion_distance": "3.519361039696976",
        "perihelion_time": "2458868.268743748078",
        "mean_anomaly": "37.60676048098237",
        "mean_motion": ".2844014459738272",
        "equinox": "J2000",
        "orbit_class": {
            "orbit_class_type": "AMO",
            "orbit_class_description": "Near-Earth asteroid orbits similar to that of 1221 Amor",
            "orbit_class_range": "1.017 AU < q (perihelion) < 1.3 AU"
        }
    },
    "is_sentry_object": false
}